{
  "type": "FeatureCollection",
  "features": [
    {
      "type": "Feature",
      "properties": {
        "norad_id": 35744,
        "name": "IRIDIUM 33 DEB",
        "group": "iridium-33-debris",
        "lat": 65.15087667581973,
        "lon": 132.51284035023366,
        "alt_km": 639.380364637128,
        "timestamp": "2025-12-23T16:57:12.739703+00:00",
        "meta_object_name": "IRIDIUM 33 DEB",
        "meta_object_id": "1997-051RX",
        "meta_epoch": "2025-12-23T03:22:28.782624",
        "meta_mean_motion": 14.71122887,
        "meta_eccentricity": 0.00216776,
        "meta_inclination": 86.3298,
        "meta_ra_of_asc_node": 320.7354,
        "meta_arg_of_pericenter": 155.7913,
        "meta_mean_anomaly": 204.4327,
        "meta_ephemeris_type": 0,
        "meta_classification_type": "U",
        "meta_norad_cat_id": 35744,
        "meta_element_set_no": 999,
        "meta_rev_at_epoch": 87484,
        "meta_bstar": 0.0012113531,
        "meta_mean_motion_dot": 7.502e-05,
        "meta_mean_motion_ddot": 0,
        "tle_line1": "1 35744U 97051RX  25357.14061091  .00007502  00000+0  12114-2 0  9993",
        "tle_line2": "2 35744  86.3298 320.7354 0021677 155.7913 204.4327 14.71122887874843"
      },
      "geometry": {
        "type": "Point",
        "coordinates": [
          132.51284035023366,
          65.15087667581973
        ]
      }
    },
    {
      "type": "Feature",
      "properties": {
        "norad_id": 35797,
        "name": "IRIDIUM 33 DEB",
        "group": "iridium-33-debris",
        "lat": -50.80001568518923,
        "lon": -39.57349081360841,
        "alt_km": 636.7267143921999,
        "timestamp": "2025-12-23T16:57:12.739713+00:00",
        "meta_object_name": "IRIDIUM 33 DEB",
        "meta_object_id": "1997-051SF",
        "meta_epoch": "2025-12-23T04:13:41.927808",
        "meta_mean_motion": 14.83019917,
        "meta_eccentricity": 0.00147795,
        "meta_inclination": 86.3362,
        "meta_ra_of_asc_node": 325.1762,
        "meta_arg_of_pericenter": 114.8894,
        "meta_mean_anomaly": 245.3866,
        "meta_ephemeris_type": 0,
        "meta_classification_type": "U",
        "meta_norad_cat_id": 35797,
        "meta_element_set_no": 999,
        "meta_rev_at_epoch": 87495,
        "meta_bstar": 0.0018258905,
        "meta_mean_motion_dot": 0.0001491,
        "meta_mean_motion_ddot": 0,
        "tle_line1": "1 35797U 97051SF  25357.17617972  .00014910  00000+0  18259-2 0  9996",
        "tle_line2": "2 35797  86.3362 325.1762 0014779 114.8894 245.3866 14.83019917874950"
      },
      "geometry": {
        "type": "Point",
        "coordinates": [
          -39.57349081360841,
          -50.80001568518923
        ]
      }
    },
    {
      "type": "Feature",
      "properties": {
        "norad_id": 35806,
        "name": "IRIDIUM 33 DEB",
        "group": "iridium-33-debris",
        "lat": -30.559722863247934,
        "lon": 13.634595297265685,
        "alt_km": 704.076920640633,
        "timestamp": "2025-12-23T16:57:12.739724+00:00",
        "meta_object_name": "IRIDIUM 33 DEB",
        "meta_object_id": "1997-051SQ",
        "meta_epoch": "2025-12-22T08:08:16.057536",
        "meta_mean_motion": 14.57429355,
        "meta_eccentricity": 0.00153731,
        "meta_inclination": 86.3431,
        "meta_ra_of_asc_node": 16.4008,
        "meta_arg_of_pericenter": 45.7308,
        "meta_mean_anomaly": 314.5159,
        "meta_ephemeris_type": 0,
        "meta_classification_type": "U",
        "meta_norad_cat_id": 35806,
        "meta_element_set_no": 999,
        "meta_rev_at_epoch": 86464,
        "meta_bstar": 0.0011754226,
        "meta_mean_motion_dot": 5.361e-05,
        "meta_mean_motion_ddot": 0,
        "tle_line1": "1 35806U 97051SQ  25356.33907474  .00005361  00000+0  11754-2 0  9996",
        "tle_line2": "2 35806  86.3431  16.4008 0015373  45.7308 314.5159 14.57429355864645"
      },
      "geometry": {
        "type": "Point",
        "coordinates": [
          13.634595297265685,
          -30.559722863247934
        ]
      }
    },
    {
      "type": "Feature",
      "properties": {
        "norad_id": 35809,
        "name": "IRIDIUM 33 DEB",
        "group": "iridium-33-debris",
        "lat": -19.89343763162852,
        "lon": -30.978605086771765,
        "alt_km": 653.1900524761086,
        "timestamp": "2025-12-23T16:57:12.739735+00:00",
        "meta_object_name": "IRIDIUM 33 DEB",
        "meta_object_id": "1997-051ST",
        "meta_epoch": "2025-12-21T16:13:39.380736",
        "meta_mean_motion": 14.75870585,
        "meta_eccentricity": 0.00102664,
        "meta_inclination": 86.3279,
        "meta_ra_of_asc_node": 331.2775,
        "meta_arg_of_pericenter": 205.8578,
        "meta_mean_anomaly": 154.2129,
        "meta_ephemeris_type": 0,
        "meta_classification_type": "U",
        "meta_norad_cat_id": 35809,
        "meta_element_set_no": 999,
        "meta_rev_at_epoch": 86939,
        "meta_bstar": 0.0013721853,
        "meta_mean_motion_dot": 9.452e-05,
        "meta_mean_motion_ddot": 0,
        "tle_line1": "1 35809U 97051ST  25355.67615024  .00009452  00000+0  13722-2 0  9994",
        "tle_line2": "2 35809  86.3279 331.2775 0010266 205.8578 154.2129 14.75870585869399"
      },
      "geometry": {
        "type": "Point",
        "coordinates": [
          -30.978605086771765,
          -19.89343763162852
        ]
      }
    },
    {
      "type": "Feature",
      "properties": {
        "norad_id": 35846,
        "name": "IRIDIUM 33 DEB",
        "group": "iridium-33-debris",
        "lat": -83.8206670090991,
        "lon": 18.31080399779349,
        "alt_km": 766.004108451848,
        "timestamp": "2025-12-23T16:57:12.739745+00:00",
        "meta_object_name": "IRIDIUM 33 DEB",
        "meta_object_id": "1997-051SW",
        "meta_epoch": "2025-12-20T14:27:58.085568",
        "meta_mean_motion": 14.43184351,
        "meta_eccentricity": 0.00195294,
        "meta_inclination": 86.3741,
        "meta_ra_of_asc_node": 55.4852,
        "meta_arg_of_pericenter": 145.7638,
        "meta_mean_anomaly": 214.4826,
        "meta_ephemeris_type": 0,
        "meta_classification_type": "U",
        "meta_norad_cat_id": 35846,
        "meta_element_set_no": 999,
        "meta_rev_at_epoch": 71442,
        "meta_bstar": 0.00034498842,
        "meta_mean_motion_dot": 1.181e-05,
        "meta_mean_motion_ddot": 0,
        "tle_line1": "1 35846U 97051SW  25354.60275562  .00001181  00000+0  34499-3 0  9992",
        "tle_line2": "2 35846  86.3741  55.4852 0019529 145.7638 214.4826 14.43184351714425"
      },
      "geometry": {
        "type": "Point",
        "coordinates": [
          18.31080399779349,
          -83.8206670090991
        ]
      }
    },
    {
      "type": "Feature",
      "properties": {
        "norad_id": 35848,
        "name": "IRIDIUM 33 DEB",
        "group": "iridium-33-debris",
        "lat": 47.91707021542236,
        "lon": 15.201050404309846,
        "alt_km": 630.2003532092576,
        "timestamp": "2025-12-23T16:57:12.739755+00:00",
        "meta_object_name": "IRIDIUM 33 DEB",
        "meta_object_id": "1997-051SY",
        "meta_epoch": "2025-12-20T18:54:17.008704",
        "meta_mean_motion": 14.78786946,
        "meta_eccentricity": 0.00088391,
        "meta_inclination": 86.3889,
        "meta_ra_of_asc_node": 12.5039,
        "meta_arg_of_pericenter": 160.7491,
        "meta_mean_anomaly": 199.4066,
        "meta_ephemeris_type": 0,
        "meta_classification_type": "U",
        "meta_norad_cat_id": 35848,
        "meta_element_set_no": 999,
        "meta_rev_at_epoch": 66809,
        "meta_bstar": 0.00088484231,
        "meta_mean_motion_dot": 6.531e-05,
        "meta_mean_motion_ddot": 0,
        "tle_line1": "1 35848U 97051SY  25354.78769686  .00006531  00000+0  88484-3 0  9995",
        "tle_line2": "2 35848  86.3889  12.5039 0008839 160.7491 199.4066 14.78786946668092"
      },
      "geometry": {
        "type": "Point",
        "coordinates": [
          15.201050404309846,
          47.91707021542236
        ]
      }
    },
    {
      "type": "Feature",
      "properties": {
        "norad_id": 35850,
        "name": "IRIDIUM 33 DEB",
        "group": "iridium-33-debris",
        "lat": 20.830535053906438,
        "lon": -19.3528591499156,
        "alt_km": 636.6923533925838,
        "timestamp": "2025-12-23T16:57:12.739765+00:00",
        "meta_object_name": "IRIDIUM 33 DEB",
        "meta_object_id": "1997-051TA",
        "meta_epoch": "2025-12-22T16:30:11.093760",
        "meta_mean_motion": 14.79024497,
        "meta_eccentricity": 0.00105589,
        "meta_inclination": 86.349,
        "meta_ra_of_asc_node": 339.7186,
        "meta_arg_of_pericenter": 150.1943,
        "meta_mean_anomaly": 209.9881,
        "meta_ephemeris_type": 0,
        "meta_classification_type": "U",
        "meta_norad_cat_id": 35850,
        "meta_element_set_no": 999,
        "meta_rev_at_epoch": 71504,
        "meta_bstar": 0.001690767,
        "meta_mean_motion_dot": 0.0001254,
        "meta_mean_motion_ddot": 0,
        "tle_line1": "1 35850U 97051TA  25356.68762840  .00012540  00000+0  16908-2 0  9992",
        "tle_line2": "2 35850  86.3490 339.7186 0010558 150.1943 209.9881 14.79024497715043"
      },
      "geometry": {
        "type": "Point",
        "coordinates": [
          -19.3528591499156,
          20.830535053906438
        ]
      }
    }
  ]
}